STARLINK-1007           
1 44713U 19074A   24044.10119425  .00021111  00000+0  14299-2 0  9999
2 44713  53.0562 338.5881 0001513  76.0834 284.0323 15.06452809235031
STARLINK-1008           
1 44714U 19074B   24043.21752425  .00009443  00000+0  65192-3 0  9997
2 44714  53.0552 342.5588 0001380  91.5261 268.5886 15.06405303234732
STARLINK-1009           
1 44715U 19074C   24043.80357726  .00001664  00000+0  13050-3 0  9991
2 44715  53.0546 339.9235 0001244  77.1370 282.9757 15.06420195234817
STARLINK-1010           
1 44716U 19074D   24044.08739412  .00021646  00000+0  14658-2 0  9995
2 44716  53.0557 338.6523 0001653  65.2557 294.8604 15.06445676235012
STARLINK-1011           
1 44717U 19074E   24043.15670997  .00007310  00000+0  50908-3 0  9996
2 44717  53.0555   2.8281 0001425 103.9448 256.1699 15.06404841234448
STARLINK-1012           
1 44718U 19074F   24044.12424019  .00022220  00000+0  15036-2 0  9996
2 44718  53.0550 338.4865 0001404 112.1424 247.9714 15.06457560235031
STARLINK-1013           
1 44719U 19074G   24044.13165234  .00030593  00000+0  20625-2 0  9991
2 44719  53.0549 338.4503 0001938  76.3889 283.7316 15.06423297235033
STARLINK-1014           
1 44720U 19074H   24043.21971973  .00042318  00000+0  28168-2 0  9994
2 44720  53.0547 342.5312 0001580 119.8488 240.2658 15.06741590234730
STARLINK-1015           
1 44721U 19074J   24044.13899143  .00018629  00000+0  12648-2 0  9999
2 44721  53.0550 338.4215 0001391  79.5888 280.5258 15.06440886235038
STARLINK-1017           
1 44723U 19074L   24043.95839890  .00013888  00000+0  94915-3 0  9993
2 44723  53.0552 339.2324 0001249  81.5428 278.5702 15.06410387234849
STARLINK-1019           
1 44724U 19074M   24044.12056334  .00020546  00000+0  13926-2 0  9999
2 44724  53.0548 338.5027 0001303 100.8940 259.2195 15.06442690235038
STARLINK-1020           
1 44725U 19074N   24044.12609905  .00014408  00000+0  98407-3 0  9996
2 44725  53.0557 358.4795 0001685  70.6047 289.5124 15.06403328234758
STARLINK-1021           
1 44726U 19074P   24044.11686741  .00021399  00000+0  14490-2 0  9995
2 44726  53.0555 338.5197 0001508 111.1557 248.9593 15.06455018235037
STARLINK-1024           
1 44729U 19074S   24044.25001157  .00182904  00000+0  11026-2 0  9997
2 44729  53.0086 208.1892 0006049 229.2966 297.8838 15.76604100236810
STARLINK-1027           
1 44732U 19074V   24044.11504084  .00013391  00000+0  91548-3 0  9994
2 44732  53.0556 358.5386 0001463  88.9244 271.1913 15.06427322234750
STARLINK-1028           
1 44733U 19074W   24043.84781323  .00014323  00000+0  97789-3 0  9996
2 44733  53.0571 339.7240 0001152  84.2478 275.8642 15.06421668234826
STARLINK-1029           
1 44734U 19074X   24043.86255717  .00004808  00000+0  34130-3 0  9990
2 44734  53.0529 259.6551 0001416  87.7129 272.4022 15.06417762235926
STARLINK-1030           
1 44735U 19074Y   24044.12240909  .00015748  00000+0  10731-2 0  9993
2 44735  53.0553 358.4926 0001450  75.4077 284.7073 15.06423103234750
STARLINK-1031           
1 44736U 19074Z   24044.13715755  .00018754  00000+0  12732-2 0  9994
2 44736  53.0548 358.4255 0001369  86.7709 273.3437 15.06439284234762
STARLINK-1032           
1 44737U 19074AA  24044.14821174  .00019270  00000+0  13075-2 0  9994
2 44737  53.0563 358.3771 0001352  84.1307 275.9836 15.06444180234762
STARLINK-1035           
1 44740U 19074AD  24043.87914542 -.00000706  00000+0 -28492-4 0  9996
2 44740  53.0578 359.5847 0001356 102.4040 257.7101 15.06409493234559
STARLINK-1036           
1 44741U 19074AE  24044.15558396  .00018378  00000+0  12482-2 0  9992
2 44741  53.0556 358.3455 0001316  77.5643 282.5494 15.06438074234766
STARLINK-1038           
1 44743U 19074AG  24044.13900211  .00016273  00000+0  11079-2 0  9992
2 44743  53.0559  18.4163 0001551  85.0908 275.0258 15.06430606234487
STARLINK-1039           
1 44744U 19074AH  24044.15004918  .00004112  00000+0  29464-3 0  9991
2 44744  53.0546  18.3597 0001441  95.8289 264.2864 15.06421381234486
STARLINK-1041           
1 44746U 19074AK  24044.13530240  .00008095  00000+0  56145-3 0  9993
2 44746  53.0559  18.4306 0001563 112.1105 248.0050 15.06418632234488
STARLINK-1042           
1 44747U 19074AL  24044.14202617  .00038002  00000+0  24397-2 0  9993
2 44747  53.0553  18.1638 0002462  87.4111 272.7160 15.08125800234499
STARLINK-1043           
1 44748U 19074AM  24044.19428961  .00005270  00000+0  37226-3 0  9998
2 44748  53.0560  18.1695 0001548  86.7163 273.4003 15.06417136234492
STARLINK-1046           
1 44751U 19074AQ  24044.14267636  .00006090  00000+0  42705-3 0  9996
2 44751  53.0554  18.3986 0001288 100.5702 259.5432 15.06426594234487
STARLINK-1047           
1 44752U 19074AR  24044.16294874  .00018804  00000+0  12764-2 0  9990
2 44752  53.0556 358.3090 0001196 103.4738 256.6384 15.06444142234766
STARLINK-1048           
1 44753U 19074AS  24043.23963888  .00021251  00000+0  14409-2 0  9994
2 44753  53.0549 342.4578 0001102  92.4963 267.6152 15.06409721234734
STARLINK-1052           
1 44757U 19074AW  24044.13410096  .00057468  00000+0  29372-2 0  9990
2 44757  53.0575 353.1679 0004129 134.8675 225.2654 15.16135136234836
STARLINK-1053           
1 44758U 19074AX  24044.19060903  .00014540  00000+0  99213-3 0  9991
2 44758  53.0550  18.2733 0001351  84.7668 275.3475 15.06431800234494
STARLINK-1054           
1 44759U 19074AY  24044.17217060  .00006381  00000+0  44674-3 0  9993
2 44759  53.0554  18.2623 0001502  83.1283 276.9877 15.06414699234491
STARLINK-1055           
1 44760U 19074AZ  24044.12109939  .00015432  00000+0  63603-3 0  9995
2 44760  53.0145 347.1135 0002669 198.4611 161.6289 15.24278070234938
STARLINK-1056           
1 44761U 19074BA  24044.16848026  .00002308  00000+0  17374-3 0  9999
2 44761  53.0566  18.2825 0001604 125.9743 234.1395 15.06413997234491
STARLINK-1057           
1 44762U 19074BB  24043.83859359  .00020816  00000+0  14110-2 0  9992
2 44762  53.0560 359.7661 0001411 112.8272 247.2866 15.06432607234548
STARLINK-1058           
1 44763U 19074BC  24044.15747415  .00013285  00000+0  90820-3 0  9993
2 44763  53.0556  18.6728 0001520  83.1454 276.9708 15.06437377234488
STARLINK-1059           
1 44764U 19074BD  24044.14074779  .00084522  00000+0  29458-2 0  9999
2 44764  53.0803 309.9828 0006823 150.2186 209.9203 15.28918128235467
STARLINK-1060           
1 44765U 19074BE  24044.11872421  .00016645  00000+0  11328-2 0  9995
2 44765  53.0551 358.5075 0001135  78.0917 282.0199 15.06430088234759
STARLINK-1061           
1 44766U 19074BF  24044.18322355  .00005068  00000+0  35872-3 0  9997
2 44766  53.0541  18.2165 0001276  86.5939 273.5196 15.06419662234491
STARLINK-1062           
1 44767U 19074BG  24044.10855913  .00011454  00000+0  78600-3 0  9993
2 44767  53.0569  18.5401 0001373 106.7864 253.3276 15.06427565234483
STARLINK-1063           
1 44768U 19074BH  24044.19797546  .00012264  00000+0  84029-3 0  9992
2 44768  53.0560  18.1549 0001472  85.1201 274.9956 15.06420910234491
STARLINK-1067           
1 44771U 19074BL  24044.18691142  .00005712  00000+0  40184-3 0  9994
2 44771  53.0553  18.2011 0001154  88.1281 271.9840 15.06416956234494
STARLINK-1068           
1 44772U 19074BM  24044.11134505  .00007405  00000+0  51549-3 0  9991
2 44772  53.0560 358.5444 0001706 144.4579 215.6524 15.06400823234751
STARLINK-1073           
1 44914U 20001A   24043.53081811  .00008574  00000+0  59371-3 0  9996
2 44914  53.0530 141.1468 0001452  89.3339 270.7817 15.06406767225870
STARLINK-1084           
1 44915U 20001B   24043.89203472  .00006072  00000+0  42615-3 0  9999
2 44915  53.0533 139.5255 0001266  97.3510 262.7623 15.06402135225930
STARLINK-1098           
1 44917U 20001D   24043.56399409 -.00001165  00000+0 -59290-4 0  9999
2 44917  53.0552 141.0001 0001440  88.4386 271.6768 15.06404192225884
STARLINK-1099           
1 44918U 20001E   24043.43044853  .00047139  00000+0  75444-3 0  9993
2 44918  53.0548 112.5363 0003183  56.8727 303.2588 15.52678322227016
STARLINK-1102           
1 44920U 20001G   24043.46561122  .00014880  00000+0  55611-3 0  9993
2 44920  53.0511 101.7113 0002156   6.5625 353.5401 15.27579921226434
STARLINK-1103           
1 44921U 20001H   24043.67361455  .00007061  00000+0  49243-3 0  9991
2 44921  53.0536 140.4637 0001410 117.3189 242.7944 15.06402258225874
STARLINK-1104           
1 44922U 20001J   24043.64510790  .00006089  00000+0  42742-3 0  9993
2 44922  53.0535 140.6322 0001486  82.7627 277.3531 15.06392458225890
STARLINK-1106           
1 44923U 20001K   24043.49782570  .00012287  00000+0  52944-3 0  9996
2 44923  53.0230 113.6088 0001446 115.7055 244.4091 15.22968472226261
STARLINK-1111           
1 44924U 20001L   24043.52713575  .00007510  00000+0  52250-3 0  9993
2 44924  53.0530 141.1850 0001593  90.5409 269.5763 15.06402859225878
STARLINK-1112           
1 44925U 20001M   24043.54187509  .00005294  00000+0  37404-3 0  9999
2 44925  53.0522 141.0972 0001293  91.7449 268.3688 15.06401059225872
STARLINK-1113           
1 44926U 20001N   24043.47185267  .00001780  00000+0  13839-3 0  9993
2 44926  53.0548 141.4974 0001349  91.0670 269.0474 15.06400192226552
STARLINK-1114           
1 44927U 20001P   24043.55293853 -.00000684  00000+0 -27033-4 0  9990
2 44927  53.0533 141.0473 0001492  91.7309 268.3851 15.06401999225884
STARLINK-1119           
1 44928U 20001Q   24044.25001157 -.00085831  00000+0 -70936-3 0  9999
2 44928  53.0508 105.3456 0001036  72.7783 113.8791 15.69760235226440
STARLINK-1121           
1 44929U 20001R   24044.25001157  .00240617  00000+0  98156-3 0  9997
2 44929  53.0459  87.8660 0007247  17.5883 265.5402 15.84924275226677
STARLINK-1123           
1 44930U 20001S   24043.63403685  .00005287  00000+0  37348-3 0  9990
2 44930  53.0542 140.6875 0001573  97.4456 262.6712 15.06408721225899
